[{"OBJECT_NAME":"STARLINK-34757","OBJECT_ID":"2025-152J","EPOCH":"2026-03-09T14:29:44.288448","MEAN_MOTION":15.05654812,"ECCENTRICITY":0.0002943,"INCLINATION":97.6022,"RA_OF_ASC_NODE":285.4077,"ARG_OF_PERICENTER":71.7281,"MEAN_ANOMALY":288.4266,"EPHEMERIS_TYPE":0,"CLASSIFICATION_TYPE":"U","NORAD_CAT_ID":64850,"ELEMENT_SET_NO":999,"REV_AT_EPOCH":3540,"BSTAR":0.00050251,"MEAN_MOTION_DOT":7.199e-5,"MEAN_MOTION_DDOT":0},{"OBJECT_NAME":"PEGASUS DEB","OBJECT_ID":"1994-029CY","EPOCH":"2026-03-09T05:13:06.117888","MEAN_MOTION":14.31816092,"ECCENTRICITY":0.03405003,"INCLINATION":81.2891,"RA_OF_ASC_NODE":137.9762,"ARG_OF_PERICENTER":84.6876,"MEAN_ANOMALY":331.5571,"EPHEMERIS_TYPE":0,"CLASSIFICATION_TYPE":"U","NORAD_CAT_ID":24051,"ELEMENT_SET_NO":999,"REV_AT_EPOCH":50238,"BSTAR":0.0015079585,"MEAN_MOTION_DOT":7.708e-5,"MEAN_MOTION_DDOT":0}]
